COSMOS 1933             
1 18958U 88020A   26009.32040706  .00005360  00000+0  26662-3 0  9996
2 18958  82.5146 309.6242 0006136  59.1163 301.0673 15.17405013 41222
SL-3 R/B                
1 19046U 88032B   26009.59664439  .00005721  00000+0  27313-3 0  9997
2 19046  97.5113 353.1343 0028437  80.7016 279.7432 15.19089849 43135
SL-16 R/B               
1 19120U 88039B   26009.65054435 -.00000034  00000+0  65291-5 0  9995
2 19120  71.0133 193.3840 0019645  68.4037 291.9179 14.19604295950004
COSMOS 1953             
1 19210U 88050A   26006.86628059  .00006843  00000+0  25443-3 0  9993
2 19210  82.5067 220.3632 0011626 349.1631  10.9355 15.27279129 28349
SL-8 R/B                
1 19257U 88053B   26009.62808344  .00000205  00000+0  74827-4 0  9998
2 19257  74.0455 221.3211 0019179  55.0223   0.6188 14.38879053968102
COSMOS 1975             
1 19573U 88093A   26009.50565023  .00008346  00000+0  31366-3 0  9998
2 19573  82.5202 177.0228 0012167  24.1570 336.0237 15.26944483 10370
SL-14 R/B               
1 19574U 88093B   26009.67050286  .00000578  00000+0  63867-4 0  9998
2 19574  82.5315  97.4572 0019559 230.7636 243.6977 14.85587225992276
SL-16 R/B               
1 19650U 88102B   26009.43013675  .00000033  00000+0  40917-4 0  9996
2 19650  70.9996 276.1816 0011968 103.4776 256.7681 14.16141564918508
INTERCOSMOS 24          
1 20261U 89080A   26009.62801310  .00000485  00000+0  13382-3 0  9990
2 20261  82.6074 142.8244 1188987  69.8575 302.6290 12.59482851659363
SL-14 R/B               
1 20262U 89080C   26009.58597115  .00000284  00000+0  84746-4 0  9991
2 20262  82.5909 211.1403 1229943 319.9436  31.6922 12.50436162652763
DELTA 1 R/B             
1 20323U 89089B   26009.57620821  .00000453  00000+0  12122-3 0  9994
2 20323  97.0736 226.4006 0067959 310.3565  49.1711 14.50601864887161
ARIANE 40 R/B           
1 20443U 90005H   26009.60627914  .00000310  00000+0  11220-3 0  9991
2 20443  98.3201  71.9915 0010492  29.0173 331.1597 14.39823276884305
